{"type": "FeatureCollection", "features": [ {"type": "Feature", "properties": {"norad_id": 66989, "name": "CZ-4B R/B", "group": "last-30-days", "lat": 1.2821864410491752, "lon": -113.56389392885895, "alt_km": 425.1837065598029, "timestamp": "2025-12-25T22:42:15.711150+00:00", "meta": {"OBJECT_NAME": "CZ-4B R/B", "OBJECT_ID": "2025-289B", "EPOCH": "2025-12-25T15:49:10.266240", "MEAN_MOTION": 15.70391772, "ECCENTRICITY": 0.0139095, "INCLINATION": 97.5227, "RA_OF_ASC_NODE": 65.9579, "ARG_OF_PERICENTER": 313.9156, "MEAN_ANOMALY": 45.069, "EPHEMERIS_TYPE": 0, "CLASSIFICATION_TYPE": "U", "NORAD_CAT_ID": 66989, "ELEMENT_SET_NO": 999, "REV_AT_EPOCH": 259, "BSTAR": 0.0006104, "MEAN_MOTION_DOT": 0.00132054, "MEAN_MOTION_DDOT": 7.3519e-06}, "tle": {"line1": "1 66989U 25289B   25359.65914660  .00132054  73519-5  61040-3 0  9994", "line2": "2 66989  97.5227  65.9579 0139095 313.9156  45.0690 15.70391772  2590"}}, "geometry": {"type": "Point", "coordinates": [-113.56389392885895, 1.2821864410491752]}}, {"type": "Feature", "properties": {"norad_id": 66990, "name": "TJS-22", "group": "last-30-days", "lat": -1.1530727545147506, "lon": 141.65704608247853, "alt_km": 35794.82825247495, "timestamp": "2025-12-25T22:42:15.711166+00:00", "meta": {"OBJECT_NAME": "TJS-22", "OBJECT_ID": "2025-290A", "EPOCH": "2025-12-25T08:20:15.492192", "MEAN_MOTION": 1.00271566, "ECCENTRICITY": 0.0003396, "INCLINATION": 1.9567, "RA_OF_ASC_NODE": 285.0325, "ARG_OF_PERICENTER": 343.1131, "MEAN_ANOMALY": 17.4773, "EPHEMERIS_TYPE": 0, "CLASSIFICATION_TYPE": "U", "NORAD_CAT_ID": 66990, "ELEMENT_SET_NO": 999, "REV_AT_EPOCH": 28, "BSTAR": 0, "MEAN_MOTION_DOT": 1.5e-07, "MEAN_MOTION_DDOT": 0}, "tle": {"line1": "1 66990U 25290A   25359.34740153  .00000015  00000+0  00000+0 0  9993", "line2": "2 66990   1.9567 285.0325 0003396 343.1131  17.4773  1.00271566   289"}}, "geometry": {"type": "Point", "coordinates": [141.65704608247853, -1.1530727545147506]}}, {"type": "Feature", "properties": {"norad_id": 66991, "name": "CZ-3B R/B", "group": "last-30-days", "lat": 24.809438494507578, "lon": -5.033242538124592, "alt_km": 13702.07407675199, "timestamp": "2025-12-25T22:42:15.711179+00:00", "meta": {"OBJECT_NAME": "CZ-3B R/B", "OBJECT_ID": "2025-290B", "EPOCH": "2025-12-15T17:23:33.043200", "MEAN_MOTION": 2.38388611, "ECCENTRICITY": 0.7240884, "INCLINATION": 28.4636, "RA_OF_ASC_NODE": 300.4666, "ARG_OF_PERICENTER": 182.7002, "MEAN_ANOMALY": 168.625, "EPHEMERIS_TYPE": 0, "CLASSIFICATION_TYPE": "U", "NORAD_CAT_ID": 66991, "ELEMENT_SET_NO": 999, "REV_AT_EPOCH": 16, "BSTAR": 0.00075879, "MEAN_MOTION_DOT": 0.00057911, "MEAN_MOTION_DDOT": -2.0514e-07}, "tle": {"line1": "1 66991U 25290B   25349.72468800  .00057911 -20514-6  75879-3 0  9998", "line2": "2 66991  28.4636 300.4666 7240884 182.7002 168.6250  2.38388611   165"}}, "geometry": {"type": "Point", "coordinates": [-5.033242538124592, 24.809438494507578]}}, {"type": "Feature", "properties": {"norad_id": 66993, "name": "2025-292A", "group": "last-30-days", "lat": -21.190384642262643, "lon": -110.6189585637154, "alt_km": 548.7883945836684, "timestamp": "2025-12-25T22:42:15.711190+00:00", "meta": {"OBJECT_NAME": "2025-292A", "OBJECT_ID": "2025-292A", "EPOCH": "2025-12-25T18:37:10.116192", "MEAN_MOTION": 15.0459156, "ECCENTRICITY": 0.0014669, "INCLINATION": 97.6493, "RA_OF_ASC_NODE": 72.1992, "ARG_OF_PERICENTER": 225.4723, "MEAN_ANOMALY": 134.5306, "EPHEMERIS_TYPE": 0, "CLASSIFICATION_TYPE": "U", "NORAD_CAT_ID": 66993, "ELEMENT_SET_NO": 999, "REV_AT_EPOCH": 235, "BSTAR": 0.00032041, "MEAN_MOTION_DOT": 4.446e-05, "MEAN_MOTION_DDOT": 0}, "tle": {"line1": "1 66993U 25292A   25359.77581153  .00004446  00000+0  32041-3 0  9994", "line2": "2 66993  97.6493  72.1992 0014669 225.4723 134.5306 15.04591560  2352"}}, "geometry": {"type": "Point", "coordinates": [-110.6189585637154, -21.190384642262643]}}, {"type": "Feature", "properties": {"norad_id": 66994, "name": "2025-292B", "group": "last-30-days", "lat": -23.716406650090892, "lon": -111.01479414358192, "alt_km": 548.8323320797299, "timestamp": "2025-12-25T22:42:15.711202+00:00", "meta": {"OBJECT_NAME": "2025-292B", "OBJECT_ID": "2025-292B", "EPOCH": "2025-12-25T18:36:29.951424", "MEAN_MOTION": 15.0464101, "ECCENTRICITY": 0.0014458, "INCLINATION": 97.6503, "RA_OF_ASC_NODE": 72.2015, "ARG_OF_PERICENTER": 225.8739, "MEAN_ANOMALY": 134.1299, "EPHEMERIS_TYPE": 0, "CLASSIFICATION_TYPE": "U", "NORAD_CAT_ID": 66994, "ELEMENT_SET_NO": 999, "REV_AT_EPOCH": 235, "BSTAR": 0.00036124, "MEAN_MOTION_DOT": 5.027e-05, "MEAN_MOTION_DDOT": 0}, "tle": {"line1": "1 66994U 25292B   25359.77534666  .00005027  00000+0  36124-3 0  9994", "line2": "2 66994  97.6503  72.2015 0014458 225.8739 134.1299 15.04641010  2352"}}, "geometry": {"type": "Point", "coordinates": [-111.01479414358192, -23.716406650090892]}}, {"type": "Feature", "properties": {"norad_id": 66995, "name": "2025-292C", "group": "last-30-days", "lat": -24.78222642214171, "lon": -111.18837761797933, "alt_km": 548.6129681557741, "timestamp": "2025-12-25T22:42:15.711211+00:00", "meta": {"OBJECT_NAME": "2025-292C", "OBJECT_ID": "2025-292C", "EPOCH": "2025-12-25T05:50:07.257120", "MEAN_MOTION": 15.04668363, "ECCENTRICITY": 0.0014688, "INCLINATION": 97.6495, "RA_OF_ASC_NODE": 71.6733, "ARG_OF_PERICENTER": 227.9665, "MEAN_ANOMALY": 132.0312, "EPHEMERIS_TYPE": 0, "CLASSIFICATION_TYPE": "U", "NORAD_CAT_ID": 66995, "ELEMENT_SET_NO": 999, "REV_AT_EPOCH": 227, "BSTAR": 0.00041226, "MEAN_MOTION_DOT": 5.751e-05, "MEAN_MOTION_DDOT": 0}, "tle": {"line1": "1 66995U 25292C   25359.24313955  .00005751  00000+0  41226-3 0  9996", "line2": "2 66995  97.6495  71.6733 0014688 227.9665 132.0312 15.04668363  2273"}}, "geometry": {"type": "Point", "coordinates": [-111.18837761797933, -24.78222642214171]}}, {"type": "Feature", "properties": {"norad_id": 66996, "name": "2025-292D", "group": "last-30-days", "lat": -26.743044524669624, "lon": -111.51389783723027, "alt_km": 549.3473904430111, "timestamp": "2025-12-25T22:42:15.711221+00:00", "meta": {"OBJECT_NAME": "2025-292D", "OBJECT_ID": "2025-292D", "EPOCH": "2025-12-25T05:49:36.025248", "MEAN_MOTION": 15.04678565, "ECCENTRICITY": 0.0013797, "INCLINATION": 97.6491, "RA_OF_ASC_NODE": 71.6729, "ARG_OF_PERICENTER": 230.5158, "MEAN_ANOMALY": 129.4848, "EPHEMERIS_TYPE": 0, "CLASSIFICATION_TYPE": "U", "NORAD_CAT_ID": 66996, "ELEMENT_SET_NO": 999, "REV_AT_EPOCH": 227, "BSTAR": 0.00027339, "MEAN_MOTION_DOT": 3.792e-05, "MEAN_MOTION_DDOT": 0}, "tle": {"line1": "1 66996U 25292D   25359.24277807  .00003792  00000+0  27339-3 0  9994", "line2": "2 66996  97.6491  71.6729 0013797 230.5158 129.4848 15.04678565  2271"}}, "geometry": {"type": "Point", "coordinates": [-111.51389783723027, -26.743044524669624]}}, {"type": "Feature", "properties": {"norad_id": 66997, "name": "2025-292E", "group": "last-30-days", "lat": -31.444824697280865, "lon": -112.33991583587606, "alt_km": 548.8709198156193, "timestamp": "2025-12-25T22:42:15.711231+00:00", "meta": {"OBJECT_NAME": "2025-292E", "OBJECT_ID": "2025-292E", "EPOCH": "2025-12-25T16:58:41.146752", "MEAN_MOTION": 15.04774099, "ECCENTRICITY": 0.0014257, "INCLINATION": 97.6509, "RA_OF_ASC_NODE": 72.1387, "ARG_OF_PERICENTER": 229.9954, "MEAN_ANOMALY": 130.0021, "EPHEMERIS_TYPE": 0, "CLASSIFICATION_TYPE": "U", "NORAD_CAT_ID": 66997, "ELEMENT_SET_NO": 999, "REV_AT_EPOCH": 233, "BSTAR": 0.00032375, "MEAN_MOTION_DOT": 4.514e-05, "MEAN_MOTION_DDOT": 0}, "tle": {"line1": "1 66997U 25292E   25359.70742068  .00004514  00000+0  32375-3 0  9991", "line2": "2 66997  97.6509  72.1387 0014257 229.9954 130.0021 15.04774099  2333"}}, "geometry": {"type": "Point", "coordinates": [-112.33991583587606, -31.444824697280865]}}, {"type": "Feature", "properties": {"norad_id": 66998, "name": "2025-292F", "group": "last-30-days", "lat": -40.645179255002404, "lon": -114.24578798072194, "alt_km": 547.6882487746489, "timestamp": "2025-12-25T22:42:15.711252+00:00", "meta": {"OBJECT_NAME": "2025-292F", "OBJECT_ID": "2025-292F", "EPOCH": "2025-12-25T16:56:14.791200", "MEAN_MOTION": 15.04958275, "ECCENTRICITY": 0.001538, "INCLINATION": 97.6528, "RA_OF_ASC_NODE": 72.1445, "ARG_OF_PERICENTER": 230.8612, "MEAN_ANOMALY": 129.1248, "EPHEMERIS_TYPE": 0, "CLASSIFICATION_TYPE": "U", "NORAD_CAT_ID": 66998, "ELEMENT_SET_NO": 999, "REV_AT_EPOCH": 234, "BSTAR": 0.00043514, "MEAN_MOTION_DOT": 6.122e-05, "MEAN_MOTION_DDOT": 0}, "tle": {"line1": "1 66998U 25292F   25359.70572675  .00006122  00000+0  43514-3 0  9991", "line2": "2 66998  97.6528  72.1445 0015380 230.8612 129.1248 15.04958275  2341"}}, "geometry": {"type": "Point", "coordinates": [-114.24578798072194, -40.645179255002404]}}, {"type": "Feature", "properties": {"norad_id": 66999, "name": "2025-292G", "group": "last-30-days", "lat": -44.191194340761044, "lon": -115.12613629979285, "alt_km": 547.9408244900142, "timestamp": "2025-12-25T22:42:15.711263+00:00", "meta": {"OBJECT_NAME": "2025-292G", "OBJECT_ID": "2025-292G", "EPOCH": "2025-12-25T15:19:33.782016", "MEAN_MOTION": 15.05021677, "ECCENTRICITY": 0.0014876, "INCLINATION": 97.6538, "RA_OF_ASC_NODE": 72.0811, "ARG_OF_PERICENTER": 233.076, "MEAN_ANOMALY": 126.9104, "EPHEMERIS_TYPE": 0, "CLASSIFICATION_TYPE": "U", "NORAD_CAT_ID": 66999, "ELEMENT_SET_NO": 999, "REV_AT_EPOCH": 233, "BSTAR": 0.00044736, "MEAN_MOTION_DOT": 6.306e-05, "MEAN_MOTION_DDOT": 0}, "tle": {"line1": "1 66999U 25292G   25359.63858544  .00006306  00000+0  44736-3 0  9997", "line2": "2 66999  97.6538  72.0811 0014876 233.0760 126.9104 15.05021677  2330"}}, "geometry": {"type": "Point", "coordinates": [-115.12613629979285, -44.191194340761044]}}]}